GLOBALSTAR M035 [-]     
1 25851U 99037A   23335.85947479 -.00000090  00000+0 -99059-3 0  9993
2 25851  51.9941 231.2223 0013779 143.7785 293.6979 11.04527674 34019
GLOBALSTAR M032 [-]     
1 25852U 99037B   23336.50163915 -.00000016  00000+0  16364-2 0  9996
2 25852  51.9943  93.8091 0007457 298.9367  61.0685 11.19046185 71844
GLOBALSTAR M051 [-]     
1 25853U 99037C   23335.90811114 -.00000047  00000+0  60825-3 0  9997
2 25853  51.9820 319.7188 0001506 296.8391  63.2265 11.42193064 68028
GLOBALSTAR M030 [-]     
1 25854U 99037D   23336.51793372 -.00000066  00000+0  19041-3 0  9996
2 25854  51.9839 160.1255 0005753 109.1896 250.9544 11.55084420 85120
GLOBALSTAR M048 [-]     
1 25872U 99041A   23336.06434727 -.00000033  00000+0  99265-3 0  9997
2 25872  51.9361 232.5978 0012522 293.8299 175.5810 11.33841804 60984
GLOBALSTAR M026 [-]     
1 25873U 99041B   23335.87946344  .00000057  00000+0  44477-2 0  9998
2 25873  52.0044 355.0771 0001624  39.0154  22.1726 11.06831417 86113
GLOBALSTAR M043 [-]     
1 25874U 99041C   23335.14075458 -.00000076  00000+0 -22348-3 0  9995
2 25874  51.9426 319.9546 0013512  70.0707  10.8685 11.25675704 59353
GLOBALSTAR M028 [-]     
1 25875U 99041D   23336.47836842 -.00000068  00000+0  20492-3 0  9993
2 25875  51.9634  70.9051 0062871 289.3536  70.0535 12.50545172119800
